{
  "type": "FeatureCollection",
  "features": [
    {
      "type": "Feature",
      "properties": {
        "norad_id": 66806,
        "name": "STARLINK-36069",
        "group": "last-30-days",
        "lat": 42.144257528180965,
        "lon": -51.16548761670655,
        "alt_km": 374.91090675963005,
        "timestamp": "2025-12-20T11:30:27.105988+00:00",
        "meta_object_name": "STARLINK-36069",
        "meta_object_id": "2025-278R",
        "meta_epoch": "2025-12-20T04:00:00.999072",
        "meta_mean_motion": 15.63893976,
        "meta_eccentricity": 0.0001513,
        "meta_inclination": 42.9994,
        "meta_ra_of_asc_node": 206.9123,
        "meta_arg_of_pericenter": 275.279,
        "meta_mean_anomaly": 222.439,
        "meta_ephemeris_type": 0,
        "meta_classification_type": "U",
        "meta_norad_cat_id": 66806,
        "meta_element_set_no": 999,
        "meta_rev_at_epoch": 394,
        "meta_bstar": -0.022998,
        "meta_mean_motion_dot": -0.01960179,
        "meta_mean_motion_ddot": 0,
        "tle_line1": "1 66806U 25278R   25354.16667823 -.01960179  00000+0 -22998-1 0  9993",
        "tle_line2": "2 66806  42.9994 206.9123 0001513 275.2790 222.4390 15.63893976  3945"
      },
      "geometry": {
        "type": "Point",
        "coordinates": [
          -51.16548761670655,
          42.144257528180965
        ]
      }
    },
    {
      "type": "Feature",
      "properties": {
        "norad_id": 66807,
        "name": "STARLINK-36000",
        "group": "last-30-days",
        "lat": 40.959256585236325,
        "lon": -43.64571875157926,
        "alt_km": 374.99534426688933,
        "timestamp": "2025-12-20T11:30:27.106001+00:00",
        "meta_object_name": "STARLINK-36000",
        "meta_object_id": "2025-278S",
        "meta_epoch": "2025-12-20T04:00:00.999072",
        "meta_mean_motion": 15.63899642,
        "meta_eccentricity": 0.0001386,
        "meta_inclination": 42.9992,
        "meta_ra_of_asc_node": 206.8982,
        "meta_arg_of_pericenter": 272.5735,
        "meta_mean_anomaly": 230.8965,
        "meta_ephemeris_type": 0,
        "meta_classification_type": "U",
        "meta_norad_cat_id": 66807,
        "meta_element_set_no": 999,
        "meta_rev_at_epoch": 421,
        "meta_bstar": -0.023126,
        "meta_mean_motion_dot": -0.01970091,
        "meta_mean_motion_ddot": 0,
        "tle_line1": "1 66807U 25278S   25354.16667823 -.01970091  00000+0 -23126-1 0  9992",
        "tle_line2": "2 66807  42.9992 206.8982 0001386 272.5735 230.8965 15.63899642  4211"
      },
      "geometry": {
        "type": "Point",
        "coordinates": [
          -43.64571875157926,
          40.959256585236325
        ]
      }
    },
    {
      "type": "Feature",
      "properties": {
        "norad_id": 66808,
        "name": "STARLINK-36071",
        "group": "last-30-days",
        "lat": 40.4573072292229,
        "lon": -41.2065133815889,
        "alt_km": 375.06952006348,
        "timestamp": "2025-12-20T11:30:27.106013+00:00",
        "meta_object_name": "STARLINK-36071",
        "meta_object_id": "2025-278T",
        "meta_epoch": "2025-12-20T04:00:00.999072",
        "meta_mean_motion": 15.63899568,
        "meta_eccentricity": 0.0001387,
        "meta_inclination": 42.9989,
        "meta_ra_of_asc_node": 206.8934,
        "meta_arg_of_pericenter": 273.1776,
        "meta_mean_anomaly": 232.2096,
        "meta_ephemeris_type": 0,
        "meta_classification_type": "U",
        "meta_norad_cat_id": 66808,
        "meta_element_set_no": 999,
        "meta_rev_at_epoch": 415,
        "meta_bstar": -0.023125,
        "meta_mean_motion_dot": -0.01970046,
        "meta_mean_motion_ddot": 0,
        "tle_line1": "1 66808U 25278T   25354.16667823 -.01970046  00000+0 -23125-1 0  9992",
        "tle_line2": "2 66808  42.9989 206.8934 0001387 273.1776 232.2096 15.63899568  4159"
      },
      "geometry": {
        "type": "Point",
        "coordinates": [
          -41.2065133815889,
          40.4573072292229
        ]
      }
    },
    {
      "type": "Feature",
      "properties": {
        "norad_id": 66809,
        "name": "STARLINK-35979",
        "group": "last-30-days",
        "lat": 38.65603058526975,
        "lon": -34.128536780667574,
        "alt_km": 375.3609258821152,
        "timestamp": "2025-12-20T11:30:27.106023+00:00",
        "meta_object_name": "STARLINK-35979",
        "meta_object_id": "2025-278U",
        "meta_epoch": "2025-12-20T04:00:00.999072",
        "meta_mean_motion": 15.63901002,
        "meta_eccentricity": 0.0001446,
        "meta_inclination": 42.9988,
        "meta_ra_of_asc_node": 206.8779,
        "meta_arg_of_pericenter": 272.806,
        "meta_mean_anomaly": 238.3312,
        "meta_ephemeris_type": 0,
        "meta_classification_type": "U",
        "meta_norad_cat_id": 66809,
        "meta_element_set_no": 999,
        "meta_rev_at_epoch": 415,
        "meta_bstar": -0.023155,
        "meta_mean_motion_dot": -0.0197245,
        "meta_mean_motion_ddot": 0,
        "tle_line1": "1 66809U 25278U   25354.16667823 -.01972450  00000+0 -23155-1 0  9997",
        "tle_line2": "2 66809  42.9988 206.8779 0001446 272.8060 238.3312 15.63901002  4159"
      },
      "geometry": {
        "type": "Point",
        "coordinates": [
          -34.128536780667574,
          38.65603058526975
        ]
      }
    },
    {
      "type": "Feature",
      "properties": {
        "norad_id": 66810,
        "name": "STARLINK-36046",
        "group": "last-30-days",
        "lat": 39.90546468874504,
        "lon": -38.807881290498685,
        "alt_km": 375.1386857182015,
        "timestamp": "2025-12-20T11:30:27.106033+00:00",
        "meta_object_name": "STARLINK-36046",
        "meta_object_id": "2025-278V",
        "meta_epoch": "2025-12-20T04:00:00.999072",
        "meta_mean_motion": 15.6389541,
        "meta_eccentricity": 0.0001396,
        "meta_inclination": 42.9987,
        "meta_ra_of_asc_node": 206.8889,
        "meta_arg_of_pericenter": 270.8578,
        "meta_mean_anomaly": 236.4476,
        "meta_ephemeris_type": 0,
        "meta_classification_type": "U",
        "meta_norad_cat_id": 66810,
        "meta_element_set_no": 999,
        "meta_rev_at_epoch": 392,
        "meta_bstar": -0.023054,
        "meta_mean_motion_dot": -0.01964401,
        "meta_mean_motion_ddot": 0,
        "tle_line1": "1 66810U 25278V   25354.16667823 -.01964401  00000+0 -23054-1 0  9994",
        "tle_line2": "2 66810  42.9987 206.8889 0001396 270.8578 236.4476 15.63895410  3927"
      },
      "geometry": {
        "type": "Point",
        "coordinates": [
          -38.807881290498685,
          39.90546468874504
        ]
      }
    },
    {
      "type": "Feature",
      "properties": {
        "norad_id": 66811,
        "name": "STARLINK-36045",
        "group": "last-30-days",
        "lat": 39.30517655027371,
        "lon": -36.44942775941378,
        "alt_km": 375.1850128923834,
        "timestamp": "2025-12-20T11:30:27.106043+00:00",
        "meta_object_name": "STARLINK-36045",
        "meta_object_id": "2025-278W",
        "meta_epoch": "2025-12-20T04:00:00.999072",
        "meta_mean_motion": 15.63893801,
        "meta_eccentricity": 0.0001364,
        "meta_inclination": 42.999,
        "meta_ra_of_asc_node": 206.8837,
        "meta_arg_of_pericenter": 269.0728,
        "meta_mean_anomaly": 240.149,
        "meta_ephemeris_type": 0,
        "meta_classification_type": "U",
        "meta_norad_cat_id": 66811,
        "meta_element_set_no": 999,
        "meta_rev_at_epoch": 415,
        "meta_bstar": -0.023013,
        "meta_mean_motion_dot": -0.01961249,
        "meta_mean_motion_ddot": 0,
        "tle_line1": "1 66811U 25278W   25354.16667823 -.01961249  00000+0 -23013-1 0  9997",
        "tle_line2": "2 66811  42.9990 206.8837 0001364 269.0728 240.1490 15.63893801  4153"
      },
      "geometry": {
        "type": "Point",
        "coordinates": [
          -36.44942775941378,
          39.30517655027371
        ]
      }
    },
    {
      "type": "Feature",
      "properties": {
        "norad_id": 66812,
        "name": "STARLINK-36054",
        "group": "last-30-days",
        "lat": 37.96371518566993,
        "lon": -31.853522744727158,
        "alt_km": 375.3724593264769,
        "timestamp": "2025-12-20T11:30:27.106052+00:00",
        "meta_object_name": "STARLINK-36054",
        "meta_object_id": "2025-278X",
        "meta_epoch": "2025-12-20T04:00:00.999072",
        "meta_mean_motion": 15.63897435,
        "meta_eccentricity": 0.0001351,
        "meta_inclination": 42.9992,
        "meta_ra_of_asc_node": 206.8741,
        "meta_arg_of_pericenter": 270.1434,
        "meta_mean_anomaly": 242.9114,
        "meta_ephemeris_type": 0,
        "meta_classification_type": "U",
        "meta_norad_cat_id": 66812,
        "meta_element_set_no": 999,
        "meta_rev_at_epoch": 415,
        "meta_bstar": -0.023083,
        "meta_mean_motion_dot": -0.01966722,
        "meta_mean_motion_ddot": 0,
        "tle_line1": "1 66812U 25278X   25354.16667823 -.01966722  00000+0 -23083-1 0  9996",
        "tle_line2": "2 66812  42.9992 206.8741 0001351 270.1434 242.9114 15.63897435  4153"
      },
      "geometry": {
        "type": "Point",
        "coordinates": [
          -31.853522744727158,
          37.96371518566993
        ]
      }
    }
  ]
}